OBJECT_NAME,OBJECT_ID,EPOCH,MEAN_MOTION,ECCENTRICITY,INCLINATION,RA_OF_ASC_NODE,ARG_OF_PERICENTER,MEAN_ANOMALY,EPHEMERIS_TYPE,CLASSIFICATION_TYPE,NORAD_CAT_ID,ELEMENT_SET_NO,REV_AT_EPOCH,BSTAR,MEAN_MOTION_DOT,MEAN_MOTION_DDOT
EYESAT A (AO-27),1993-061C,2026-06-20T03:30:53.143488,14.30942955,.00095418,98.6879,238.5590,92.1826,268.0449,0,U,22825,999,70742,.4202775E-4,.66E-6,0
ITAMSAT (IO-26),1993-061D,2026-06-20T02:59:58.103520,14.31369966,.00100304,98.6826,238.4553,77.4626,282.7678,0,U,22826,999,70773,.41439208E-4,.65E-6,0
RADIO ROSTO (RS15),1994-085A,2026-06-20T07:24:39.306528,11.27583503,.01560358,64.8186,298.1674,3.2975,356.8941,0,U,23439,999,29625,.39947967E-3,-.28E-6,0
JAS-2 (FO-29),1996-046B,2026-06-20T01:07:13.688544,13.53274564,.0350925,98.5237,19.5270,89.0333,275.0987,0,U,24278,999,47355,.17772829E-4,-.15E-6,0
FORTE,1997-047A,2026-06-19T18:09:38.849760,14.27946016,.00246336,69.9539,8.2172,274.2276,85.6031,0,U,24920,999,49905,.67422308E-4,.11E-5,0
TECHSAT 1B (GO-32),1998-043D,2026-06-20T05:24:28.016064,14.24428866,.00012144,99.0068,164.0607,156.9177,203.2056,0,U,25397,999,45176,.33010559E-4,.3E-6,0
ISS (ZARYA),1998-067A,2026-06-20T03:45:31.104864,15.49327998,.00045551,51.6329,285.3962,207.7610,152.3136,0,U,25544,999,57221,.16345057E-3,.8669E-4,0
IMAGE,2000-017A,2026-06-11T08:17:58.695072,1.68665984,.7436383,94.2241,315.2958,288.4674,8.8959,0,U,26113,999,16140,.22926E-1,.11E-6,0
CLUSTER II-FM7 (SAMBA),2000-041A,2026-06-21T14:25:43.507200,0.44827446,.90601568,149.9156,51.6296,268.8489,359.5243,0,U,26410,999,2032,0,.47E-4,0
CLUSTER II-FM8 (TANGO),2000-045B,2026-06-19T16:33:04.575456,0.44409240,.90634604,150.1490,52.4920,269.5316,2.6305,0,U,26464,999,2032,0,.4777E-4,0
ODIN,2001-007A,2026-06-20T01:52:40.157184,15.76711423,.00067494,97.3813,212.2073,140.3393,219.8368,0,U,26702,999,38985,.10522952E-2,.171166E-2,0
OMNI-M1,2001-026A,2026-06-16T05:01:03.889056,3.92401638,.0014194,44.8307,245.4893,53.4474,306.7446,0,U,26857,999,20553,0,-.1E-7,0
PCSAT (NO-44),2001-043C,2026-06-20T07:15:23.551488,14.31957024,.0006064,67.0502,236.2148,264.6638,95.3772,0,U,26931,999,29089,.48882023E-4,.48E-6,0
PROBA-1,2001-049B,2026-06-20T06:09:10.666080,15.07500439,.00564431,97.9594,179.8966,111.8245,248.8999,0,U,26958,999,34408,.68844476E-4,.1011E-4,0
SAUDISAT 1C (SO-50),2002-058C,2026-06-20T04:33:14.048352,14.83052340,.00751612,64.5514,119.6951,261.9163,97.3411,0,U,27607,999,26490,.10356315E-3,.729E-5,0
CORIOLIS,2003-001A,2026-06-20T00:22:43.665024,14.19945493,.00135391,98.7125,177.8574,200.2755,159.7885,0,U,27640,999,21462,.51745157E-4,.66E-6,0
CUTE-1 (CO-55),2003-031E,2026-06-19T13:35:11.395968,14.24336935,.00096891,98.6736,179.0951,171.1603,188.9749,0,U,27844,999,19201,.10623568E-3,.202E-5,0
CUBESAT XI-IV (CO-57),2003-031J,2026-06-19T23:27:32.070528,14.23622052,.00092194,98.6765,179.2116,188.6492,171.4529,0,U,27848,999,19177,.9310277E-4,.169E-5,0
MOZHAETS 4 (RS22),2003-042A,2026-06-20T08:19:45.279840,14.73469403,.0009926,98.3471,355.7944,258.2610,222.2118,0,U,27939,999,21601,.27352716E-4,.124E-5,0
