EYESAT A (AO-27)        
1 22825U 93061C   26171.14644842  .00000066  00000+0  42028-4 0  9999
2 22825  98.6879 238.5590 0009541  92.1826 268.0449 14.30942955707422
ITAMSAT (IO-26)         
1 22826U 93061D   26171.12497805  .00000065  00000+0  41439-4 0  9997
2 22826  98.6826 238.4553 0010030  77.4626 282.7678 14.31369966707739
RADIO ROSTO (RS15)      
1 23439U 94085A   26171.30878827 -.00000028  00000+0  39948-3 0  9993
2 23439  64.8186 298.1674 0156035   3.2975 356.8941 11.27583503296254
JAS-2 (FO-29)           
1 24278U 96046B   26171.04668621 -.00000015  00000+0  17773-4 0  9993
2 24278  98.5237  19.5270 0350925  89.0333 275.0987 13.53274564473555
FORTE                   
1 24920U 97047A   26170.75669965  .00000110  00000+0  67422-4 0  9999
2 24920  69.9539   8.2172 0024633 274.2276  85.6031 14.27946016499058
TECHSAT 1B (GO-32)      
1 25397U 98043D   26171.22532426  .00000030  00000+0  33011-4 0  9997
2 25397  99.0068 164.0607 0001214 156.9177 203.2056 14.24428866451764
ISS (ZARYA)             
1 25544U 98067A   26171.15661001  .00008669  00000+0  16345-3 0  9997
2 25544  51.6329 285.3962 0004555 207.7610 152.3136 15.49327998572210
IMAGE                   
1 26113U 00017A   26162.34581823  .00000011  00000+0  22926-1 0  9995
2 26113  94.2241 315.2958 7436383 288.4674   8.8959  1.68665984161407
CLUSTER II-FM7 (SAMBA)  
1 26410U 00041A   26172.60119800  .00004700  00000+0  00000+0 0  9990
2 26410 149.9156  51.6296 9060156 268.8489 359.5243  0.44827446 20328
CLUSTER II-FM8 (TANGO)  
1 26464U 00045B   26170.68963629  .00004777  00000+0  00000+0 0  9999
2 26464 150.1490  52.4920 9063460 269.5316   2.6305  0.44409240 20326
ODIN                    
1 26702U 01007A   26171.07824256  .00171166  00000+0  10523-2 0  9990
2 26702  97.3813 212.2073 0006749 140.3393 219.8368 15.76711423389853
OMNI-M1                 
1 26857U 01026A   26167.20907279 -.00000001  00000+0  00000+0 0  9995
2 26857  44.8307 245.4893 0014194  53.4474 306.7446  3.92401638205538
PCSAT (NO-44)           
1 26931U 01043C   26171.30235592  .00000048  00000+0  48882-4 0  9990
2 26931  67.0502 236.2148 0006064 264.6638  95.3772 14.31957024290897
PROBA-1                 
1 26958U 01049B   26171.25637345  .00001011  00000+0  68844-4 0  9992
2 26958  97.9594 179.8966 0056443 111.8245 248.8999 15.07500439344087
SAUDISAT 1C (SO-50)     
1 27607U 02058C   26171.18974593  .00000729  00000+0  10356-3 0  9995
2 27607  64.5514 119.6951 0075161 261.9163  97.3411 14.83052340264905
CORIOLIS                
1 27640U 03001A   26171.01578316  .00000066  00000+0  51745-4 0  9998
2 27640  98.7125 177.8574 0013539 200.2755 159.7885 14.19945493214621
CUTE-1 (CO-55)          
1 27844U 03031E   26170.56610412  .00000202  00000+0  10624-3 0  9992
2 27844  98.6736 179.0951 0009689 171.1603 188.9749 14.24336935192018
CUBESAT XI-IV (CO-57)   
1 27848U 03031J   26170.97745452  .00000169  00000+0  93103-4 0  9990
2 27848  98.6765 179.2116 0009219 188.6492 171.4529 14.23622052191779
MOZHAETS 4 (RS22)       
1 27939U 03042A   26171.34705185  .00000124  00000+0  27353-4 0  9999
2 27939  98.3471 355.7944 0009926 258.2610 222.2118 14.73469403216010
